HORIZONS-2              
1 32388C 07063B   23313.00000000 -.00000164  00000-0  00000-0 0  3134
2 32388   0.1326  89.5577 0002731 164.5248  80.0763  1.00271734    12
GALAXY 18 (G-18)        
1 32951C 08024A   23310.00000000  .00000115  00000-0  00000-0 0  3107
2 32951   0.0178 270.8548 0003161 317.9025  53.2299  1.00273311    19
GALAXY 18 (G-18)    [PM]
1 32951C 08024A   23312.10416667  .00000115  00000-0  00000-0 0  3122
2 32951   0.0149 270.0143 0002993 316.8083  94.7441  1.00271037    16
GALAXY 18 (G-18)        
1 32951C 08024A   23313.00000000  .00000115  00000-0  00000-0 0  3133
2 32951   0.0134 272.4201 0002920 314.5794  57.9507  1.00271324    18
INTELSAT 25 (IS-25)     
1 33153C 08034A   23310.00000000 -.00000134  00000-0  00000-0 0  3105
2 33153   0.2359  90.9409 0003143 139.0451 143.4960  1.00270012    12
INTELSAT 25 (IS-25) [PM]
1 33153C 08034A   23312.35416667 -.00000133  00000-0  00000-0 0  3126
2 33153   0.2395  90.6362 0002912 138.0617 274.6126  1.00273018    13
INTELSAT 25 (IS-25)     
1 33153C 08034A   23313.00000000 -.00000133  00000-0  00000-0 0  3130
2 33153   0.2407  90.5145 0002912 137.5270 148.4099  1.00272773    18
GALAXY 19 (G-19)        
1 33376C 08045A   23310.00000000 -.00000102  00000-0  00000-0 0  3109
2 33376   0.0042 263.8554 0003006 331.3871  72.7396  1.00271031    18
GALAXY 19 (G-19)        
1 33376C 08045A   23313.00000000 -.00000030  00000-0  00000-0 0  3135
2 33376   0.0000 269.7954 0002793 325.6886  75.4584  1.00271828    18
GALAXY 19 (G-19)    [PM]
1 33376C 08045A   23318.98837963 -.00000029  00000-0  00000-0 0  3186
2 33376   0.0348  66.7954 0002730 175.3115  70.5580  1.00272358    15
INTELSAT 14 (IS-14)     
1 36097C 09064A   23310.00000000 -.00000270  00000-0  00000-0 0  3100
2 36097   0.0112  17.0721 0002637 214.6763 128.2496  1.00270621    18
INTELSAT 14 (IS-14) [PM]
1 36097C 09064A   23312.84797454 -.00000183  00000-0  00000-0 0  3125
2 36097   0.0197 281.3887 0002369 305.2476  81.4233  1.00273521    11
INTELSAT 14 (IS-14)     
1 36097C 09064A   23313.00000000 -.00000183  00000-0  00000-0 0  3139
2 36097   0.0193 281.4462 0002404 305.6102 135.8835  1.00273467    18
INTELSAT 15 (IS-15)     
1 36106C 09067A   23310.00000000 -.00000095  00000-0  00000-0 0  3109
2 36106   0.0061 249.7448 0002481 344.9097 255.4857  1.00270602    19
INTELSAT 15 (IS-15) [PM]
1 36106C 09067A   23312.46554398 -.00000090  00000-0  00000-0 0  3122
2 36106   0.0023 248.6722 0002209 341.1046  70.3822  1.00272499    13
INTELSAT 15 (IS-15)     
1 36106C 09067A   23313.00000000 -.00000086  00000-0  00000-0 0  3135
2 36106   0.0011 250.2729 0002211 341.2283 261.5909  1.00272535    14
INTELSAT 16 (IS-16)     
1 36397C 10006A   23310.00000000 -.00000155  00000-0  00000-0 0  3103
2 36397   0.0145 325.2334 0002732 275.5190  88.0365  1.00270079    12
INTELSAT 16 (IS-16) [PM]
1 36397C 10006A   23312.27899306 -.00000155  00000-0  00000-0 0  3121
2 36397   0.0155 332.5657 0002172 261.7671 197.1423  1.00277802    19
INTELSAT 16 (IS-16)     
1 36397C 10006A   23313.00000000 -.00000155  00000-0  00000-0 0  3139
2 36397   0.0175 340.0360 0001891 242.6772 109.0389  1.00271415    10
INTELSAT 16 (IS-16) [PM]
1 36397C 10006A   23313.52900463 -.00000155  00000-0  00000-0 0  3138
2 36397   0.0194 346.2585 0001848 238.2336 298.2237  1.00271500    15
INTELSAT 17 (IS-17)     
1 37238C 10065B   23310.00000000  .00000088  00000-0  00000-0 0  3107
2 37238   0.0189 264.6000 0002905 323.4817 242.8912  1.00273337    10
INTELSAT 17 (IS-17) [PM]
1 37238C 10065B   23312.96565972  .00000088  00000-0  00000-0 0  3120
2 37238   0.0142 265.9533 0002550 319.1537 236.4579  1.00270132    19
INTELSAT 17 (IS-17)     
1 37238C 10065B   23313.00000000  .00000088  00000-0  00000-0 0  3133
2 37238   0.0141 266.1811 0002541 319.0586 248.7215  1.00270160    17
INTELSAT NEW DAWN       
1 37392C 11016A   23310.00000000  .00000249  00000-0  00000-0 0  3104
2 37392   0.0068 210.7311 0002125  37.7175 189.3370  1.00273180    19
INTELSAT NEW DAWN   [PM]
1 37392C 11016A   23311.72420139  .00000241  00000-0  00000-0 0  3116
2 37392   0.0066 204.6677 0001795  39.6487  95.8812  1.00270789    17
INTELSAT NEW DAWN       
1 37392C 11016A   23313.00000000  .00000234  00000-0  00000-0 0  3134
2 37392   0.0052 204.2009 0001762  42.2927 194.2491  1.00271671    18
INTELSAT 18 (IS-18)     
1 37834C 11056A   23310.00000000  .00000143  00000-0  00000-0 0  3102
2 37834   0.0098 268.8260 0002008 318.1039 358.0485  1.00272755    14
INTELSAT 18 (IS-18) [PM]
1 37834C 11056A   23312.66320602  .00000138  00000-0  00000-0 0  3125
2 37834   0.0060 270.2835 0001785 310.8005 245.2946  1.00269919    18
INTELSAT 18 (IS-18)     
1 37834C 11056A   23313.00000000  .00000146  00000-0  00000-0 0  3131
2 37834   0.0054 271.4046 0001679 307.8244   8.7264  1.00269883    16
INTELSAT 22 (IS-22)     
1 38098C 12011A   23310.00000000 -.00000040  00000-0  00000-0 0  3104
2 38098   0.0073 261.4992 0003134 326.0353 249.5514  1.00270708    12
INTELSAT 22 (IS-22) [PM]
1 38098C 12011A   23312.68174769  .00000006  00000-0  00000-0 0  3127
2 38098   0.0013 259.7648 0002876 325.4398 139.9572  1.00272184    14
INTELSAT 22 (IS-22)     
1 38098C 12011A   23313.00000000  .00000038  00000-0  00000-0 0  3136
2 38098   0.0012 271.2041 0002850 315.1120 253.7311  1.00272336    15
INTELSAT 22 (IS-22) [PM]
1 38098C 12011A   23316.41636574  .00000031  00000-0  00000-0 0  3161
2 38098   0.0180 283.8858 0002931 300.9647  48.4673  1.00270684    16
INTELSAT 19 (IS-19)     
1 38356C 12030A   23310.00000000  .00000034  00000-0  00000-0 0  3104
2 38356   0.0121 291.7525 0003302 299.9925 339.2375  1.00272135    19
INTELSAT 19 (IS-19) [PM]
1 38356C 12030A   23312.71736111  .00000093  00000-0  00000-0 0  3120
2 38356   0.0101 296.7472 0003132 294.7876 240.3926  1.00270944    12
INTELSAT 19 (IS-19)     
1 38356C 12030A   23313.00000000  .00000027  00000-0  00000-0 0  3132
2 38356   0.0096 297.6609 0003029 293.4773 342.8181  1.00270864    16
INTELSAT 20 (IS-20)     
1 38740C 12043A   23310.00000000  .00000064  00000-0  00000-0 0  3108
2 38740   0.0246 133.6441 0001922  54.3287 285.5148  1.00269564    18
INTELSAT 20 (IS-20)     
1 38740C 12043A   23313.00000000  .00000066  00000-0  00000-0 0  3136
2 38740   0.0112 188.3783 0001872 350.5631 297.4954  1.00269774    14
INTELSAT 20 (IS-20) [PM]
1 38740C 12043A   23313.19792824  .00000068  00000-0  00000-0 0  3130
2 38740   0.0275   6.6773 0001689 241.9613 299.2454  1.00272943    11
INTELSAT 21 (IS-21)     
1 38749C 12045A   23310.00000000 -.00000227  00000-0  00000-0 0  3101
2 38749   0.0050 307.0860 0002933 288.6006 111.3105  1.00271176    17
INTELSAT 21 (IS-21) [PM]
1 38749C 12045A   23312.78665509 -.00000195  00000-0  00000-0 0  3125
2 38749   0.0191 288.5154 0002631 302.2633  42.1473  1.00273456    18
INTELSAT 21 (IS-21)     
1 38749C 12045A   23313.00000000 -.00000195  00000-0  00000-0 0  3131
2 38749   0.0186 289.2623 0002676 301.4347 119.2452  1.00273439    17
INTELSAT 23 (IS-23)     
1 38867C 12057A   23310.00000000 -.00000195  00000-0  00000-0 0  3109
2 38867   0.0117 217.8969 0001379  33.8950 100.1958  1.00265333    11
INTELSAT 23 (IS-23)     
1 38867C 12057A   23313.00000000 -.00000195  00000-0  00000-0 0  3135
2 38867   0.0141 238.5005 0001108  14.3669 102.0931  1.00267041    10
INTELSAT 23 (IS-23) [PM]
1 38867C 12057A   23314.18945602 -.00000193  00000-0  00000-0 0  3140
2 38867   0.0111 240.9664 0001653   9.3590 173.9924  1.00275594    18
INTELSAT 30 (IS-30)     
1 40271C 14062A   23310.00000000 -.00000061  00000-0  00000-0 0  3101
2 40271   0.0166 138.2721 0001130 225.1474 306.5272  1.00270209    10
INTELSAT 30 (IS-30) [PM]
1 40271C 14062A   23312.60413194 -.00000063  00000-0  00000-0 0  3125
2 40271   0.0427  84.1344 0001300 148.7032 297.1523  1.00272803    15
INTELSAT 30 (IS-30)     
1 40271C 14062A   23313.00000000 -.00000059  00000-0  00000-0 0  3134
2 40271   0.0096 320.4159 0001493  49.9722 302.5077  1.00270695    10
INTELSAT 34 (IS-34)     
1 40874C 15039A   23310.00000000 -.00000195  00000-0  00000-0 0  3103
2 40874   0.0182 313.9768 0001219  10.8163  24.7065  1.00270668    10
INTELSAT 34 (IS-34)     
1 40874C 15039A   23313.00000000 -.00000195  00000-0  00000-0 0  3139
2 40874   0.0203 311.6658 0001388  32.0039   8.7902  1.00269962    19
INTELSAT 34 (IS-34) [PM]
1 40874C 15039A   23313.95763889 -.00000195  00000-0  00000-0 0  3134
2 40874   0.0196 281.3948 0000805  49.2948   7.4597  1.00273420    17
INTELSAT 31 (IS-31)     
1 41581C 16035A   23310.00000000 -.00000061  00000-0  00000-0 0  3108
2 41581   0.0095 203.5081 0001580 341.6097 124.8095  1.00270279    16
INTELSAT 31 (IS-31)     
1 41581C 16035A   23313.00000000 -.00000060  00000-0  00000-0 0  3133
2 41581   0.0068 231.1734 0001641 302.5774 139.1346  1.00269850    15
INTELSAT 31 (IS-31) [PM]
1 41581C 16035A   23313.53268519 -.00000057  00000-0  00000-0 0  3138
2 41581   0.0493  80.3479 0001710 283.7377 141.0866  1.00272966    14
INTELSAT 36 (IS-36)     
1 41747C 16053A   23310.00000000  .00000068  00000-0  00000-0 0  3108
2 41747   0.0125 308.9199 0002360  59.5493 105.0215  1.00270449    10
INTELSAT 36 (IS-36)     
1 41747C 16053A   23313.00000000  .00000068  00000-0  00000-0 0  3134
2 41747   0.0128 312.6863 0002510  60.4125 103.3452  1.00270716    14
INTELSAT 36 (IS-36) [PM]
1 41747C 16053A   23313.48901620 -.00000120  00000-0  00000-0 0  3134
2 41747   0.0543  87.4257 0002471 107.0470  98.4995  1.00272181    10
INTELSAT 33E            
1 41748C 16053B   23310.00000000  .00000123  00000-0  00000-0 0  3101
2 41748   0.0310  75.5735 0001956 165.9224 223.4855  1.00272570    16
INTELSAT 33E        [PM]
1 41748C 16053B   23312.49891204  .00000140  00000-0  00000-0 0  3121
2 41748   0.0115 276.9795 0001673 319.6881  50.3857  1.00270605    11
